{"type":"FeatureCollection", "features": [
{"type":"Feature","geometry":{"type":"Polygon","coordinates":[[[-8.294,40.653],[-8.298,40.694],[-8.326,40.711],[-8.334,40.737],[-8.288,40.752],[-8.273,40.763],[-8.249,40.804],[-8.237,40.827],[-8.255,40.856],[-8.232,40.865],[-8.205,40.848],[-8.191,40.846],[-8.166,40.866],[-8.149,40.855],[-8.125,40.849],[-8.106,40.855],[-8.103,40.867],[-8.116,40.89],[-8.128,40.898],[-8.121,40.921],[-8.132,40.942],[-8.115,40.966],[-8.089,40.988],[-8.091,41.009],[-8.118,40.997],[-8.124,40.985],[-8.143,40.979],[-8.161,40.99],[-8.178,40.988],[-8.206,41.009],[-8.235,41.012],[-8.23,41.036],[-8.237,41.058],[-8.264,41.066],[-8.28,41.067],[-8.293,41.08],[-8.315,41.058],[-8.326,41.058],[-8.352,41.04],[-8.375,41.05],[-8.399,41.049],[-8.401,41.033],[-8.386,41.02],[-8.384,41.004],[-8.389,41.001],[-8.433,41.029],[-8.449,41.053],[-8.46,41.045],[-8.486,41.053],[-8.493,41.04],[-8.476,41.034],[-8.489,41.013],[-8.514,41.015],[-8.528,41.036],[-8.546,41.034],[-8.557,41.016],[-8.594,41.014],[-8.606,41.026],[-8.645,41.016],[-8.653,40.965],[-8.673,40.887],[-8.696,40.816],[-8.72,40.743],[-8.735,40.707],[-8.751,40.657],[-8.746,40.646],[-8.766,40.583],[-8.784,40.52],[-8.767,40.51],[-8.702,40.459],[-8.687,40.44],[-8.648,40.424],[-8.635,40.427],[-8.632,40.466],[-8.618,40.484],[-8.585,40.48],[-8.576,40.466],[-8.579,40.412],[-8.572,40.4],[-8.542,40.406],[-8.518,40.42],[-8.505,40.416],[-8.508,40.407],[-8.483,40.389],[-8.483,40.363],[-8.492,40.346],[-8.485,40.315],[-8.514,40.312],[-8.526,40.294],[-8.508,40.289],[-8.488,40.292],[-8.454,40.279],[-8.448,40.289],[-8.449,40.318],[-8.41,40.324],[-8.401,40.342],[-8.375,40.341],[-8.358,40.347],[-8.356,40.367],[-8.354,40.396],[-8.355,40.409],[-8.326,40.44],[-8.319,40.457],[-8.335,40.475],[-8.33,40.493],[-8.311,40.496],[-8.283,40.509],[-8.264,40.503],[-8.251,40.515],[-8.273,40.537],[-8.285,40.54],[-8.289,40.569],[-8.308,40.596],[-8.247,40.614],[-8.249,40.618],[-8.274,40.631],[-8.296,40.638],[-8.294,40.653]]]},"properties":{"district":"aveiro"}},
{"type":"Feature","geometry":{"type":"Polygon","coordinates":[[[-6.885,41.94],[-6.944,41.945],[-6.958,41.969],[-6.979,41.974],[-7.006,41.951],[-7.054,41.949],[-7.077,41.952],[-7.088,41.973],[-7.119,41.987],[-7.141,41.991],[-7.187,41.969],[-7.184,41.933],[-7.174,41.919],[-7.2,41.88],[-7.195,41.866],[-7.207,41.846],[-7.209,41.809],[-7.198,41.802],[-7.194,41.782],[-7.171,41.77],[-7.176,41.737],[-7.189,41.735],[-7.209,41.712],[-7.214,41.681],[-7.243,41.642],[-7.258,41.59],[-7.258,41.563],[-7.229,41.523],[-7.284,41.516],[-7.297,41.499],[-7.308,41.461],[-7.33,41.459],[-7.365,41.44],[-7.36,41.424],[-7.366,41.397],[-7.354,41.376],[-7.362,41.367],[-7.348,41.352],[-7.315,41.338],[-7.357,41.331],[-7.363,41.324],[-7.362,41.304],[-7.391,41.286],[-7.395,41.263],[-7.39,41.243],[-7.415,41.248],[-7.421,41.22],[-7.432,41.211],[-7.389,41.193],[-7.382,41.178],[-7.358,41.148],[-7.341,41.144],[-7.311,41.147],[-7.305,41.14],[-7.283,41.135],[-7.25,41.145],[-7.224,41.136],[-7.197,41.128],[-7.164,41.126],[-7.148,41.156],[-7.132,41.16],[-7.115,41.151],[-7.123,41.134],[-7.088,41.132],[-7.086,41.12],[-7.101,41.106],[-7.101,41.08],[-7.079,41.073],[-7.051,41.058],[-7.049,41.048],[-7.028,41.038],[-6.995,41.033],[-6.984,41.026],[-6.974,41.035],[-6.931,41.029],[-6.915,41.038],[-6.869,41.027],[-6.834,41.028],[-6.809,41.036],[-6.754,41.104],[-6.771,41.124],[-6.768,41.135],[-6.74,41.149],[-6.701,41.18],[-6.69,41.205],[-6.653,41.235],[-6.648,41.248],[-6.587,41.252],[-6.581,41.239],[-6.551,41.247],[-6.547,41.258],[-6.517,41.274],[-6.499,41.265],[-6.479,41.275],[-6.49,41.289],[-6.469,41.301],[-6.438,41.305],[-6.42,41.344],[-6.38,41.356],[-6.393,41.37],[-6.391,41.384],[-6.365,41.387],[-6.352,41.378],[-6.315,41.39],[-6.327,41.416],[-6.31,41.419],[-6.295,41.435],[-6.305,41.45],[-6.27,41.487],[-6.258,41.512],[-6.237,41.521],[-6.217,41.543],[-6.212,41.559],[-6.189,41.575],[-6.209,41.599],[-6.236,41.607],[-6.254,41.633],[-6.302,41.662],[-6.355,41.676],[-6.378,41.674],[-6.406,41.681],[-6.452,41.681],[-6.457,41.667],[-6.489,41.658],[-6.513,41.661],[-6.554,41.693],[-6.542,41.701],[-6.554,41.717],[-6.564,41.752],[-6.544,41.784],[-6.542,41.804],[-6.532,41.82],[-6.518,41.875],[-6.571,41.883],[-6.546,41.931],[-6.549,41.945],[-6.575,41.961],[-6.589,41.963],[-6.599,41.948],[-6.7,41.933],[-6.751,41.944],[-6.769,41.984],[-6.811,41.993],[-6.81,41.97],[-6.822,41.946],[-6.849,41.942],[-6.87,41.948],[-6.885,41.94]]]},"properties":{"district":"braganca"}},
{"type":"Feature","geometry":{"type":"Polygon","coordinates":[[[-7.344,40.382],[-7.365,40.391],[-7.381,40.382],[-7.406,40.381],[-7.429,40.392],[-7.447,40.387],[-7.462,40.402],[-7.487,40.395],[-7.516,40.366],[-7.518,40.345],[-7.537,40.318],[-7.613,40.322],[-7.619,40.3],[-7.661,40.271],[-7.686,40.27],[-7.71,40.261],[-7.734,40.237],[-7.77,40.237],[-7.782,40.23],[-7.784,40.208],[-7.809,40.182],[-7.794,40.16],[-7.776,40.158],[-7.774,40.145],[-7.747,40.13],[-7.736,40.124],[-7.733,40.104],[-7.743,40.092],[-7.776,40.069],[-7.798,40.088],[-7.811,40.074],[-7.8,40.061],[-7.808,40.036],[-7.825,40.051],[-7.864,40.058],[-7.872,40.05],[-7.916,40.033],[-7.906,40.009],[-7.92,39.998],[-7.953,40.002],[-7.963,39.986],[-7.992,39.987],[-8.03,39.965],[-8.062,39.956],[-8.078,39.957],[-8.087,39.943],[-8.114,39.949],[-8.119,39.934],[-8.129,39.926],[-8.149,39.885],[-8.223,39.855],[-8.234,39.847],[-8.274,39.843],[-8.27,39.825],[-8.293,39.809],[-8.285,39.796],[-8.284,39.782],[-8.264,39.769],[-8.244,39.779],[-8.232,39.763],[-8.232,39.727],[-8.238,39.71],[-8.23,39.697],[-8.229,39.665],[-8.236,39.644],[-8.237,39.642],[-8.164,39.627],[-8.134,39.611],[-8.108,39.614],[-8.054,39.617],[-8.077,39.659],[-8.061,39.668],[-8.062,39.693],[-8.05,39.718],[-8.055,39.736],[-8.036,39.747],[-8.005,39.743],[-7.991,39.729],[-7.96,39.743],[-7.951,39.686],[-7.959,39.664],[-7.95,39.661],[-7.914,39.667],[-7.864,39.637],[-7.862,39.626],[-7.841,39.6],[-7.817,39.585],[-7.809,39.566],[-7.822,39.559],[-7.825,39.537],[-7.8,39.544],[-7.77,39.564],[-7.755,39.588],[-7.722,39.593],[-7.713,39.609],[-7.715,39.627],[-7.673,39.649],[-7.649,39.625],[-7.637,39.623],[-7.597,39.64],[-7.579,39.659],[-7.552,39.658],[-7.542,39.664],[-7.517,39.666],[-7.454,39.662],[-7.401,39.646],[-7.375,39.651],[-7.331,39.641],[-7.284,39.661],[-7.257,39.666],[-7.219,39.66],[-7.202,39.662],[-7.151,39.653],[-7.128,39.663],[-7.089,39.663],[-7.055,39.66],[-7.016,39.67],[-7.005,39.702],[-6.988,39.728],[-6.994,39.742],[-6.987,39.763],[-6.977,39.772],[-6.987,39.81],[-6.971,39.825],[-6.958,39.824],[-6.935,39.838],[-6.931,39.852],[-6.904,39.871],[-6.899,39.902],[-6.907,39.924],[-6.886,39.94],[-6.887,39.979],[-6.876,39.992],[-6.874,40.024],[-6.881,40.042],[-6.908,40.066],[-6.932,40.099],[-6.954,40.116],[-6.999,40.119],[-7.019,40.143],[-7.016,40.176],[-7.02,40.196],[-7.009,40.227],[-6.979,40.241],[-6.962,40.239],[-6.951,40.258],[-6.962,40.268],[-6.983,40.273],[-7.014,40.29],[-7.032,40.278],[-7.084,40.278],[-7.102,40.321],[-7.117,40.323],[-7.131,40.309],[-7.136,40.283],[-7.169,40.268],[-7.174,40.276],[-7.206,40.286],[-7.225,40.278],[-7.236,40.262],[-7.273,40.266],[-7.297,40.271],[-7.319,40.281],[-7.333,40.294],[-7.309,40.303],[-7.287,40.325],[-7.273,40.349],[-7.277,40.372],[-7.27,40.408],[-7.293,40.416],[-7.307,40.403],[-7.328,40.411],[-7.343,40.4],[-7.344,40.382]]]},"properties":{"district":"castelo-branco"}},
{"type":"Feature","geometry":{"type":"Polygon","coordinates":[[[-8.331,37.847],[-8.368,37.861],[-8.401,37.863],[-8.435,37.871],[-8.44,37.86],[-8.462,37.866],[-8.479,37.855],[-8.533,37.855],[-8.551,37.847],[-8.548,37.818],[-8.569,37.817],[-8.584,37.799],[-8.59,37.778],[-8.588,37.757],[-8.608,37.759],[-8.633,37.753],[-8.661,37.768],[-8.683,37.753],[-8.695,37.776],[-8.707,37.779],[-8.735,37.814],[-8.783,37.807],[-8.793,37.82],[-8.807,37.775],[-8.81,37.742],[-8.797,37.736],[-8.792,37.706],[-8.795,37.676],[-8.812,37.63],[-8.819,37.598],[-8.792,37.552],[-8.786,37.533],[-8.797,37.499],[-8.795,37.482],[-8.802,37.446],[-8.796,37.443],[-8.781,37.434],[-8.754,37.43],[-8.749,37.416],[-8.729,37.399],[-8.683,37.4],[-8.664,37.401],[-8.637,37.378],[-8.623,37.399],[-8.585,37.404],[-8.569,37.411],[-8.52,37.382],[-8.494,37.386],[-8.455,37.374],[-8.43,37.383],[-8.422,37.394],[-8.416,37.42],[-8.378,37.427],[-8.32,37.437],[-8.285,37.431],[-8.278,37.414],[-8.266,37.409],[-8.275,37.388],[-8.249,37.385],[-8.187,37.341],[-8.158,37.334],[-8.103,37.326],[-8.083,37.329],[-8.066,37.319],[-8.03,37.352],[-8.001,37.358],[-8.005,37.386],[-7.965,37.409],[-7.939,37.404],[-7.891,37.415],[-7.892,37.435],[-7.876,37.432],[-7.852,37.449],[-7.832,37.449],[-7.742,37.492],[-7.721,37.493],[-7.713,37.502],[-7.641,37.5],[-7.62,37.49],[-7.6,37.501],[-7.588,37.516],[-7.563,37.522],[-7.512,37.526],[-7.523,37.553],[-7.508,37.567],[-7.486,37.612],[-7.445,37.664],[-7.448,37.698],[-7.432,37.72],[-7.428,37.741],[-7.409,37.767],[-7.395,37.765],[-7.376,37.784],[-7.346,37.806],[-7.321,37.819],[-7.302,37.84],[-7.298,37.857],[-7.28,37.877],[-7.282,37.898],[-7.255,37.924],[-7.251,37.965],[-7.262,37.977],[-7.246,37.992],[-7.231,37.992],[-7.186,38.002],[-7.173,37.993],[-7.129,38.002],[-7.127,38.031],[-7.108,38.041],[-7.062,38.027],[-7.045,38.014],[-7.025,38.025],[-7.007,38.021],[-6.991,38.054],[-6.987,38.104],[-6.959,38.133],[-6.958,38.156],[-6.969,38.16],[-6.954,38.186],[-6.934,38.202],[-6.942,38.218],[-7.012,38.203],[-7.029,38.183],[-7.058,38.187],[-7.084,38.169],[-7.108,38.188],[-7.124,38.185],[-7.132,38.171],[-7.152,38.173],[-7.152,38.155],[-7.16,38.16],[-7.184,38.206],[-7.198,38.222],[-7.19,38.246],[-7.234,38.257],[-7.26,38.282],[-7.265,38.307],[-7.28,38.33],[-7.335,38.321],[-7.356,38.299],[-7.393,38.295],[-7.408,38.276],[-7.414,38.264],[-7.432,38.261],[-7.438,38.243],[-7.457,38.227],[-7.47,38.214],[-7.498,38.205],[-7.492,38.19],[-7.58,38.194],[-7.588,38.203],[-7.61,38.203],[-7.635,38.21],[-7.67,38.2],[-7.711,38.214],[-7.734,38.233],[-7.759,38.247],[-7.791,38.255],[-7.804,38.246],[-7.847,38.258],[-7.936,38.301],[-7.947,38.305],[-7.981,38.317],[-7.996,38.302],[-8.02,38.301],[-8.044,38.326],[-8.072,38.318],[-8.111,38.32],[-8.131,38.313],[-8.149,38.327],[-8.164,38.32],[-8.143,38.298],[-8.13,38.266],[-8.13,38.224],[-8.165,38.218],[-8.203,38.201],[-8.23,38.197],[-8.238,38.182],[-8.266,38.18],[-8.284,38.187],[-8.29,38.17],[-8.291,38.139],[-8.308,38.137],[-8.334,38.155],[-8.338,38.141],[-8.356,38.137],[-8.354,38.119],[-8.364,38.104],[-8.387,38.116],[-8.408,38.066],[-8.395,38.053],[-8.353,38.027],[-8.314,38.016],[-8.294,37.993],[-8.296,37.951],[-8.307,37.93],[-8.309,37.912],[-8.299,37.899],[-8.311,37.882],[-8.336,37.865],[-8.331,37.847]]]},"properties":{"district":"beja"}},
{"type":"Feature","geometry":{"type":"Polygon","coordinates":[[[-8.732,41.622],[-8.757,41.614],[-8.776,41.616],[-8.801,41.606],[-8.812,41.612],[-8.799,41.572],[-8.787,41.514],[-8.791,41.502],[-8.776,41.472],[-8.746,41.469],[-8.73,41.454],[-8.712,41.455],[-8.701,41.442],[-8.683,41.449],[-8.657,41.436],[-8.65,41.42],[-8.623,41.415],[-8.605,41.413],[-8.592,41.395],[-8.623,41.383],[-8.611,41.341],[-8.602,41.346],[-8.55,41.348],[-8.516,41.346],[-8.501,41.368],[-8.455,41.376],[-8.441,41.363],[-8.423,41.366],[-8.399,41.384],[-8.387,41.381],[-8.394,41.362],[-8.357,41.365],[-8.326,41.377],[-8.316,41.351],[-8.304,41.343],[-8.278,41.346],[-8.274,41.365],[-8.247,41.392],[-8.22,41.398],[-8.223,41.409],[-8.186,41.41],[-8.166,41.4],[-8.159,41.381],[-8.14,41.373],[-8.146,41.364],[-8.119,41.344],[-8.087,41.329],[-8.065,41.343],[-8.036,41.319],[-7.99,41.347],[-7.974,41.375],[-7.963,41.404],[-7.967,41.412],[-7.942,41.43],[-7.939,41.447],[-7.938,41.477],[-7.926,41.489],[-7.904,41.489],[-7.889,41.509],[-7.861,41.512],[-7.864,41.524],[-7.838,41.539],[-7.833,41.557],[-7.814,41.565],[-7.812,41.578],[-7.83,41.602],[-7.851,41.615],[-7.857,41.601],[-7.879,41.588],[-7.906,41.587],[-7.932,41.595],[-7.953,41.593],[-7.966,41.604],[-7.997,41.603],[-8.001,41.616],[-7.999,41.653],[-7.982,41.678],[-7.994,41.687],[-8.018,41.689],[-8.039,41.701],[-8.048,41.693],[-8.074,41.695],[-8.119,41.689],[-8.094,41.707],[-8.082,41.725],[-8.076,41.75],[-8.061,41.763],[-8.051,41.819],[-8.094,41.808],[-8.131,41.809],[-8.165,41.818],[-8.169,41.807],[-8.197,41.812],[-8.232,41.787],[-8.271,41.771],[-8.292,41.782],[-8.308,41.761],[-8.337,41.765],[-8.35,41.76],[-8.375,41.77],[-8.383,41.761],[-8.414,41.759],[-8.454,41.741],[-8.461,41.732],[-8.486,41.727],[-8.493,41.742],[-8.514,41.721],[-8.522,41.68],[-8.547,41.663],[-8.537,41.654],[-8.541,41.631],[-8.565,41.625],[-8.577,41.643],[-8.604,41.634],[-8.643,41.654],[-8.664,41.642],[-8.696,41.641],[-8.724,41.634],[-8.732,41.622]]]},"properties":{"district":"braga"}},
{"type":"Feature","geometry":{"type":"Polygon","coordinates":[[[-7.782,40.23],[-7.804,40.256],[-7.826,40.266],[-7.801,40.309],[-7.765,40.317],[-7.76,40.336],[-7.778,40.336],[-7.797,40.362],[-7.797,40.405],[-7.827,40.403],[-7.845,40.414],[-7.843,40.433],[-7.811,40.439],[-7.797,40.457],[-7.827,40.482],[-7.828,40.499],[-7.847,40.496],[-7.884,40.473],[-7.904,40.456],[-7.931,40.429],[-7.948,40.423],[-8.004,40.392],[-8.04,40.387],[-8.046,40.381],[-8.066,40.374],[-8.113,40.341],[-8.132,40.335],[-8.172,40.344],[-8.187,40.338],[-8.209,40.341],[-8.252,40.324],[-8.276,40.336],[-8.293,40.354],[-8.31,40.361],[-8.334,40.359],[-8.356,40.367],[-8.358,40.347],[-8.375,40.341],[-8.401,40.342],[-8.41,40.324],[-8.449,40.318],[-8.448,40.289],[-8.454,40.279],[-8.488,40.292],[-8.508,40.289],[-8.526,40.294],[-8.514,40.312],[-8.485,40.315],[-8.492,40.346],[-8.483,40.363],[-8.483,40.389],[-8.508,40.407],[-8.505,40.416],[-8.518,40.42],[-8.542,40.406],[-8.572,40.4],[-8.579,40.412],[-8.576,40.466],[-8.585,40.48],[-8.618,40.484],[-8.632,40.466],[-8.635,40.427],[-8.648,40.424],[-8.687,40.44],[-8.702,40.459],[-8.767,40.51],[-8.784,40.52],[-8.826,40.389],[-8.846,40.327],[-8.877,40.252],[-8.909,40.187],[-8.905,40.178],[-8.875,40.162],[-8.863,40.14],[-8.87,40.106],[-8.895,40.046],[-8.871,40.035],[-8.869,40.023],[-8.839,40.028],[-8.8,40.013],[-8.784,40.036],[-8.763,40.041],[-8.732,40.032],[-8.691,40.027],[-8.674,40.03],[-8.666,40.016],[-8.64,40.01],[-8.643,39.99],[-8.616,39.992],[-8.59,40.028],[-8.552,40.024],[-8.549,39.984],[-8.552,39.962],[-8.539,39.949],[-8.523,39.967],[-8.523,39.984],[-8.491,39.986],[-8.459,40.007],[-8.457,40.018],[-8.433,40.003],[-8.428,40.004],[-8.437,40.016],[-8.426,40.027],[-8.402,40.001],[-8.395,39.975],[-8.38,39.955],[-8.393,39.938],[-8.386,39.924],[-8.359,39.936],[-8.346,39.949],[-8.319,39.975],[-8.285,39.965],[-8.272,39.975],[-8.278,39.99],[-8.298,40.009],[-8.287,40.026],[-8.276,40.045],[-8.249,40.055],[-8.243,40.067],[-8.21,40.052],[-8.179,40.09],[-8.163,40.083],[-8.143,40.065],[-8.154,40.031],[-8.154,40.021],[-8.137,40],[-8.12,39.987],[-8.108,39.962],[-8.133,39.938],[-8.119,39.934],[-8.114,39.949],[-8.087,39.943],[-8.078,39.957],[-8.062,39.956],[-8.03,39.965],[-7.992,39.987],[-7.963,39.986],[-7.953,40.002],[-7.92,39.998],[-7.906,40.009],[-7.916,40.033],[-7.872,40.05],[-7.864,40.058],[-7.825,40.051],[-7.808,40.036],[-7.8,40.061],[-7.811,40.074],[-7.798,40.088],[-7.776,40.069],[-7.743,40.092],[-7.733,40.104],[-7.736,40.124],[-7.747,40.13],[-7.774,40.145],[-7.776,40.158],[-7.794,40.16],[-7.809,40.182],[-7.784,40.208],[-7.782,40.23]]]},"properties":{"district":"coimbra"}},
{"type":"Feature","geometry":{"type":"Polygon","coordinates":[[[-7.228,38.767],[-7.232,38.785],[-7.211,38.808],[-7.214,38.831],[-7.226,38.829],[-7.245,38.848],[-7.26,38.845],[-7.279,38.828],[-7.295,38.841],[-7.326,38.825],[-7.319,38.809],[-7.347,38.798],[-7.372,38.81],[-7.392,38.802],[-7.397,38.824],[-7.413,38.844],[-7.418,38.868],[-7.428,38.888],[-7.423,38.903],[-7.466,38.926],[-7.465,38.969],[-7.492,38.989],[-7.513,38.986],[-7.533,39.008],[-7.552,38.995],[-7.542,38.968],[-7.565,38.952],[-7.604,38.954],[-7.654,38.916],[-7.683,38.929],[-7.698,38.912],[-7.733,38.939],[-7.752,38.908],[-7.79,38.896],[-7.824,38.899],[-7.865,38.909],[-7.891,38.928],[-7.915,38.965],[-7.923,38.972],[-7.958,38.965],[-7.968,38.952],[-7.996,38.942],[-8.024,38.949],[-8.014,38.981],[-8.036,38.991],[-8.048,39.008],[-8.078,39.014],[-8.09,38.99],[-8.087,38.976],[-8.103,38.969],[-8.12,39.004],[-8.104,39.023],[-8.152,39.027],[-8.192,39.008],[-8.21,38.984],[-8.228,38.987],[-8.243,38.938],[-8.272,38.907],[-8.201,38.879],[-8.182,38.879],[-8.159,38.866],[-8.186,38.851],[-8.188,38.838],[-8.168,38.83],[-8.155,38.809],[-8.141,38.818],[-8.124,38.805],[-8.153,38.773],[-8.176,38.783],[-8.182,38.803],[-8.197,38.808],[-8.222,38.829],[-8.249,38.818],[-8.269,38.832],[-8.27,38.842],[-8.301,38.86],[-8.321,38.859],[-8.342,38.839],[-8.38,38.853],[-8.382,38.841],[-8.409,38.823],[-8.419,38.838],[-8.439,38.828],[-8.444,38.813],[-8.471,38.794],[-8.5,38.807],[-8.547,38.763],[-8.515,38.765],[-8.492,38.755],[-8.511,38.733],[-8.501,38.715],[-8.52,38.709],[-8.531,38.692],[-8.566,38.678],[-8.601,38.646],[-8.612,38.645],[-8.637,38.62],[-8.657,38.608],[-8.639,38.549],[-8.616,38.553],[-8.59,38.542],[-8.575,38.548],[-8.573,38.532],[-8.532,38.528],[-8.529,38.511],[-8.507,38.519],[-8.52,38.543],[-8.498,38.549],[-8.491,38.529],[-8.476,38.517],[-8.446,38.526],[-8.423,38.521],[-8.4,38.538],[-8.369,38.546],[-8.358,38.524],[-8.336,38.507],[-8.31,38.459],[-8.325,38.443],[-8.289,38.438],[-8.301,38.423],[-8.284,38.412],[-8.301,38.4],[-8.323,38.372],[-8.301,38.376],[-8.277,38.372],[-8.269,38.354],[-8.237,38.346],[-8.198,38.343],[-8.164,38.32],[-8.149,38.327],[-8.131,38.313],[-8.111,38.32],[-8.072,38.318],[-8.044,38.326],[-8.02,38.301],[-7.996,38.302],[-7.981,38.317],[-7.947,38.305],[-7.936,38.301],[-7.847,38.258],[-7.804,38.246],[-7.791,38.255],[-7.759,38.247],[-7.734,38.233],[-7.711,38.214],[-7.67,38.2],[-7.635,38.21],[-7.61,38.203],[-7.588,38.203],[-7.58,38.194],[-7.492,38.19],[-7.498,38.205],[-7.47,38.214],[-7.457,38.227],[-7.438,38.243],[-7.432,38.261],[-7.414,38.264],[-7.408,38.276],[-7.393,38.295],[-7.356,38.299],[-7.335,38.321],[-7.28,38.33],[-7.265,38.307],[-7.26,38.282],[-7.234,38.257],[-7.19,38.246],[-7.198,38.222],[-7.184,38.206],[-7.16,38.16],[-7.152,38.155],[-7.152,38.173],[-7.132,38.171],[-7.124,38.185],[-7.108,38.188],[-7.118,38.211],[-7.143,38.241],[-7.143,38.262],[-7.156,38.279],[-7.175,38.288],[-7.202,38.329],[-7.248,38.37],[-7.275,38.4],[-7.284,38.423],[-7.318,38.44],[-7.336,38.436],[-7.315,38.449],[-7.32,38.476],[-7.315,38.514],[-7.303,38.52],[-7.303,38.543],[-7.264,38.588],[-7.26,38.609],[-7.246,38.627],[-7.267,38.628],[-7.272,38.638],[-7.26,38.723],[-7.204,38.751],[-7.228,38.767]]]},"properties":{"district":"evora"}},
{"type":"Feature","geometry":{"type":"Polygon","coordinates":[[[-8.127,37.074],[-8.096,37.064],[-8,37.01],[-7.965,36.987],[-7.933,36.971],[-7.901,36.963],[-7.873,36.964],[-7.866,36.973],[-7.815,36.996],[-7.809,37.002],[-7.77,37.029],[-7.723,37.054],[-7.649,37.093],[-7.602,37.128],[-7.57,37.142],[-7.507,37.167],[-7.469,37.176],[-7.446,37.177],[-7.404,37.171],[-7.414,37.211],[-7.421,37.239],[-7.432,37.246],[-7.422,37.275],[-7.441,37.307],[-7.445,37.347],[-7.437,37.37],[-7.44,37.391],[-7.462,37.407],[-7.446,37.42],[-7.457,37.429],[-7.456,37.45],[-7.47,37.472],[-7.467,37.491],[-7.484,37.498],[-7.494,37.523],[-7.512,37.526],[-7.563,37.522],[-7.588,37.516],[-7.6,37.501],[-7.62,37.49],[-7.641,37.5],[-7.713,37.502],[-7.721,37.493],[-7.742,37.492],[-7.832,37.449],[-7.852,37.449],[-7.876,37.432],[-7.892,37.435],[-7.891,37.415],[-7.939,37.404],[-7.965,37.409],[-8.005,37.386],[-8.001,37.358],[-8.03,37.352],[-8.066,37.319],[-8.083,37.329],[-8.103,37.326],[-8.158,37.334],[-8.187,37.341],[-8.249,37.385],[-8.275,37.388],[-8.266,37.409],[-8.278,37.414],[-8.285,37.431],[-8.32,37.437],[-8.378,37.427],[-8.416,37.42],[-8.422,37.394],[-8.43,37.383],[-8.455,37.374],[-8.494,37.386],[-8.52,37.382],[-8.569,37.411],[-8.585,37.404],[-8.623,37.399],[-8.637,37.378],[-8.664,37.401],[-8.683,37.4],[-8.729,37.399],[-8.749,37.416],[-8.754,37.43],[-8.781,37.434],[-8.796,37.443],[-8.809,37.414],[-8.851,37.345],[-8.872,37.322],[-8.873,37.3],[-8.86,37.269],[-8.885,37.221],[-8.909,37.189],[-8.903,37.17],[-8.91,37.156],[-8.939,37.107],[-8.959,37.094],[-8.961,37.074],[-8.979,37.056],[-8.983,37.026],[-8.961,37.022],[-8.949,37.008],[-8.93,37.003],[-8.927,37.019],[-8.906,37.025],[-8.895,37.042],[-8.864,37.042],[-8.855,37.055],[-8.826,37.064],[-8.772,37.071],[-8.755,37.073],[-8.728,37.086],[-8.686,37.085],[-8.668,37.079],[-8.667,37.104],[-8.64,37.119],[-8.619,37.121],[-8.592,37.122],[-8.53,37.116],[-8.528,37.108],[-8.437,37.085],[-8.396,37.09],[-8.369,37.102],[-8.33,37.089],[-8.303,37.073],[-8.287,37.073],[-8.249,37.087],[-8.228,37.085],[-8.185,37.091],[-8.127,37.074]]]},"properties":{"district":"faro"}},
{"type":"Feature","geometry":{"type":"MultiPolygon","coordinates":[[[[-6.826,40.783],[-6.817,40.797],[-6.824,40.833],[-6.803,40.846],[-6.81,40.883],[-6.838,40.89],[-6.849,40.903],[-6.848,40.925],[-6.86,40.951],[-6.875,40.961],[-6.91,41],[-6.932,41.017],[-6.931,41.029],[-6.974,41.035],[-6.984,41.026],[-6.995,41.033],[-7.028,41.038],[-7.049,41.048],[-7.051,41.058],[-7.079,41.073],[-7.101,41.08],[-7.101,41.106],[-7.086,41.12],[-7.088,41.132],[-7.123,41.134],[-7.115,41.151],[-7.132,41.16],[-7.148,41.156],[-7.164,41.126],[-7.197,41.128],[-7.224,41.136],[-7.25,41.145],[-7.283,41.135],[-7.305,41.14],[-7.323,41.119],[-7.343,41.058],[-7.341,41.029],[-7.334,41.023],[-7.348,41.011],[-7.379,41.013],[-7.371,40.992],[-7.325,40.972],[-7.336,40.934],[-7.357,40.929],[-7.375,40.905],[-7.376,40.887],[-7.401,40.879],[-7.436,40.824],[-7.454,40.813],[-7.479,40.832],[-7.514,40.869],[-7.558,40.873],[-7.588,40.85],[-7.591,40.83],[-7.625,40.784],[-7.584,40.766],[-7.571,40.748],[-7.598,40.726],[-7.586,40.709],[-7.563,40.694],[-7.535,40.69],[-7.551,40.677],[-7.542,40.659],[-7.566,40.645],[-7.562,40.636],[-7.589,40.586],[-7.58,40.575],[-7.606,40.565],[-7.635,40.568],[-7.667,40.554],[-7.713,40.544],[-7.721,40.536],[-7.753,40.527],[-7.784,40.507],[-7.823,40.508],[-7.828,40.499],[-7.827,40.482],[-7.797,40.457],[-7.811,40.439],[-7.843,40.433],[-7.845,40.414],[-7.827,40.403],[-7.797,40.405],[-7.797,40.362],[-7.778,40.336],[-7.76,40.336],[-7.765,40.317],[-7.801,40.309],[-7.826,40.266],[-7.804,40.256],[-7.782,40.23],[-7.77,40.237],[-7.734,40.237],[-7.71,40.261],[-7.686,40.27],[-7.661,40.271],[-7.619,40.3],[-7.613,40.322],[-7.537,40.318],[-7.518,40.345],[-7.516,40.366],[-7.487,40.395],[-7.462,40.402],[-7.447,40.387],[-7.429,40.392],[-7.406,40.381],[-7.381,40.382],[-7.365,40.391],[-7.344,40.382],[-7.343,40.4],[-7.328,40.411],[-7.307,40.403],[-7.293,40.416],[-7.27,40.408],[-7.277,40.372],[-7.273,40.349],[-7.287,40.325],[-7.309,40.303],[-7.333,40.294],[-7.319,40.281],[-7.297,40.271],[-7.273,40.266],[-7.236,40.262],[-7.225,40.278],[-7.206,40.286],[-7.174,40.276],[-7.169,40.268],[-7.136,40.283],[-7.131,40.309],[-7.117,40.323],[-7.102,40.321],[-7.084,40.278],[-7.032,40.278],[-7.014,40.29],[-6.983,40.273],[-6.962,40.268],[-6.951,40.258],[-6.907,40.254],[-6.868,40.264],[-6.864,40.296],[-6.818,40.325],[-6.79,40.334],[-6.793,40.356],[-6.781,40.364],[-6.822,40.396],[-6.839,40.415],[-6.85,40.452],[-6.833,40.477],[-6.811,40.505],[-6.795,40.511],[-6.805,40.539],[-6.801,40.55],[-6.845,40.566],[-6.839,40.593],[-6.806,40.633],[-6.799,40.655],[-6.802,40.678],[-6.813,40.708],[-6.811,40.717],[-6.831,40.743],[-6.826,40.783]]],[[[-7.381,40.907],[-7.418,40.922],[-7.43,40.903],[-7.425,40.887],[-7.405,40.88],[-7.388,40.885],[-7.381,40.907]]]]},"properties":{"district":"guarda"}},
{"type":"Feature","geometry":{"type":"Polygon","coordinates":[[[-9.149,39.504],[-9.172,39.501],[-9.204,39.468],[-9.233,39.432],[-9.292,39.391],[-9.359,39.36],[-9.389,39.371],[-9.409,39.359],[-9.367,39.35],[-9.358,39.321],[-9.341,39.292],[-9.307,39.29],[-9.256,39.318],[-9.239,39.306],[-9.203,39.303],[-9.188,39.274],[-9.202,39.248],[-9.199,39.235],[-9.178,39.212],[-9.172,39.22],[-9.144,39.229],[-9.123,39.251],[-9.123,39.269],[-9.101,39.29],[-9.085,39.296],[-9.066,39.31],[-9.039,39.31],[-9.026,39.293],[-8.995,39.297],[-8.987,39.318],[-8.999,39.333],[-9.002,39.355],[-8.984,39.385],[-8.971,39.393],[-8.946,39.391],[-8.932,39.423],[-8.903,39.466],[-8.893,39.465],[-8.881,39.474],[-8.846,39.473],[-8.802,39.483],[-8.759,39.476],[-8.73,39.482],[-8.743,39.509],[-8.746,39.529],[-8.737,39.537],[-8.714,39.521],[-8.695,39.532],[-8.687,39.551],[-8.671,39.562],[-8.685,39.574],[-8.687,39.61],[-8.702,39.637],[-8.647,39.664],[-8.64,39.701],[-8.674,39.71],[-8.673,39.731],[-8.682,39.749],[-8.676,39.774],[-8.624,39.79],[-8.593,39.777],[-8.545,39.798],[-8.517,39.828],[-8.501,39.824],[-8.478,39.839],[-8.463,39.804],[-8.463,39.773],[-8.451,39.755],[-8.431,39.741],[-8.423,39.754],[-8.396,39.761],[-8.38,39.752],[-8.36,39.769],[-8.33,39.775],[-8.326,39.788],[-8.336,39.803],[-8.305,39.794],[-8.285,39.796],[-8.293,39.809],[-8.27,39.825],[-8.274,39.843],[-8.234,39.847],[-8.223,39.855],[-8.149,39.885],[-8.129,39.926],[-8.119,39.934],[-8.133,39.938],[-8.108,39.962],[-8.12,39.987],[-8.137,40],[-8.154,40.021],[-8.154,40.031],[-8.143,40.065],[-8.163,40.083],[-8.179,40.09],[-8.21,40.052],[-8.243,40.067],[-8.249,40.055],[-8.276,40.045],[-8.287,40.026],[-8.298,40.009],[-8.278,39.99],[-8.272,39.975],[-8.285,39.965],[-8.319,39.975],[-8.346,39.949],[-8.359,39.936],[-8.386,39.924],[-8.393,39.938],[-8.38,39.955],[-8.395,39.975],[-8.402,40.001],[-8.426,40.027],[-8.437,40.016],[-8.428,40.004],[-8.433,40.003],[-8.457,40.018],[-8.459,40.007],[-8.491,39.986],[-8.523,39.984],[-8.523,39.967],[-8.539,39.949],[-8.552,39.962],[-8.549,39.984],[-8.552,40.024],[-8.59,40.028],[-8.616,39.992],[-8.643,39.99],[-8.64,40.01],[-8.666,40.016],[-8.674,40.03],[-8.691,40.027],[-8.732,40.032],[-8.763,40.041],[-8.784,40.036],[-8.8,40.013],[-8.839,40.028],[-8.869,40.023],[-8.871,40.035],[-8.895,40.046],[-8.932,39.965],[-8.968,39.887],[-9.002,39.818],[-9.03,39.769],[-9.04,39.741],[-9.051,39.719],[-9.051,39.701],[-9.073,39.648],[-9.085,39.615],[-9.075,39.592],[-9.115,39.545],[-9.141,39.52],[-9.149,39.504]]]},"properties":{"district":"leiria"}},
{"type":"Feature","geometry":{"type":"Polygon","coordinates":[[[-8.981,39.249],[-8.975,39.287],[-8.995,39.297],[-9.026,39.293],[-9.039,39.31],[-9.066,39.31],[-9.085,39.296],[-9.101,39.29],[-9.123,39.269],[-9.123,39.251],[-9.144,39.229],[-9.172,39.22],[-9.178,39.212],[-9.199,39.235],[-9.202,39.248],[-9.188,39.274],[-9.203,39.303],[-9.239,39.306],[-9.256,39.318],[-9.307,39.29],[-9.341,39.292],[-9.336,39.276],[-9.34,39.226],[-9.352,39.192],[-9.36,39.17],[-9.394,39.121],[-9.395,39.112],[-9.422,39.075],[-9.416,39.055],[-9.425,39.019],[-9.415,38.946],[-9.42,38.932],[-9.438,38.896],[-9.456,38.851],[-9.501,38.781],[-9.484,38.757],[-9.472,38.737],[-9.486,38.708],[-9.459,38.695],[-9.392,38.702],[-9.327,38.676],[-9.279,38.699],[-9.23,38.695],[-9.238,38.683],[-9.208,38.681],[-9.196,38.689],[-9.147,38.694],[-9.116,38.708],[-9.1,38.725],[-9.09,38.755],[-9.086,38.796],[-9.073,38.812],[-9.028,38.848],[-8.996,38.793],[-8.968,38.828],[-8.947,38.847],[-8.912,38.888],[-8.912,38.902],[-8.891,38.928],[-8.887,38.947],[-8.87,38.951],[-8.856,38.965],[-8.864,38.98],[-8.859,39],[-8.847,39.011],[-8.861,39.029],[-8.815,39.032],[-8.801,39.054],[-8.782,39.058],[-8.798,39.096],[-8.826,39.116],[-8.845,39.116],[-8.873,39.132],[-8.882,39.149],[-8.904,39.162],[-8.891,39.184],[-8.872,39.188],[-8.855,39.179],[-8.822,39.19],[-8.82,39.198],[-8.835,39.225],[-8.861,39.23],[-8.876,39.251],[-8.894,39.249],[-8.912,39.235],[-8.937,39.24],[-8.963,39.255],[-8.981,39.249]]]},"properties":{"district":"lisboa"}},
{"type":"Feature","geometry":{"type":"Polygon","coordinates":[[[-7.241,39.208],[-7.242,39.242],[-7.248,39.253],[-7.231,39.278],[-7.27,39.304],[-7.292,39.329],[-7.308,39.337],[-7.311,39.369],[-7.323,39.382],[-7.31,39.399],[-7.301,39.423],[-7.306,39.446],[-7.294,39.457],[-7.325,39.475],[-7.344,39.478],[-7.381,39.493],[-7.39,39.503],[-7.389,39.525],[-7.4,39.534],[-7.427,39.533],[-7.442,39.543],[-7.467,39.577],[-7.485,39.584],[-7.499,39.59],[-7.51,39.619],[-7.527,39.635],[-7.528,39.656],[-7.542,39.664],[-7.552,39.658],[-7.579,39.659],[-7.597,39.64],[-7.637,39.623],[-7.649,39.625],[-7.673,39.649],[-7.715,39.627],[-7.713,39.609],[-7.722,39.593],[-7.755,39.588],[-7.77,39.564],[-7.8,39.544],[-7.825,39.537],[-7.839,39.515],[-7.851,39.51],[-7.91,39.548],[-7.96,39.561],[-7.97,39.537],[-7.986,39.513],[-8,39.505],[-8.009,39.473],[-7.995,39.448],[-7.943,39.42],[-7.939,39.41],[-7.959,39.398],[-7.969,39.382],[-7.991,39.383],[-8.001,39.368],[-8.028,39.363],[-8.026,39.342],[-8.041,39.331],[-8.05,39.312],[-8.076,39.292],[-8.089,39.275],[-8.134,39.287],[-8.153,39.273],[-8.151,39.25],[-8.173,39.233],[-8.185,39.219],[-8.221,39.196],[-8.233,39.183],[-8.262,39.177],[-8.299,39.163],[-8.343,39.1],[-8.291,39.079],[-8.291,39.059],[-8.268,39.053],[-8.26,39.012],[-8.228,38.987],[-8.21,38.984],[-8.192,39.008],[-8.152,39.027],[-8.104,39.023],[-8.12,39.004],[-8.103,38.969],[-8.087,38.976],[-8.09,38.99],[-8.078,39.014],[-8.048,39.008],[-8.036,38.991],[-8.014,38.981],[-8.024,38.949],[-7.996,38.942],[-7.968,38.952],[-7.958,38.965],[-7.923,38.972],[-7.915,38.965],[-7.891,38.928],[-7.865,38.909],[-7.824,38.899],[-7.79,38.896],[-7.752,38.908],[-7.733,38.939],[-7.698,38.912],[-7.683,38.929],[-7.654,38.916],[-7.604,38.954],[-7.565,38.952],[-7.542,38.968],[-7.552,38.995],[-7.533,39.008],[-7.513,38.986],[-7.492,38.989],[-7.465,38.969],[-7.466,38.926],[-7.423,38.903],[-7.428,38.888],[-7.418,38.868],[-7.413,38.844],[-7.397,38.824],[-7.392,38.802],[-7.372,38.81],[-7.347,38.798],[-7.319,38.809],[-7.326,38.825],[-7.295,38.841],[-7.279,38.828],[-7.26,38.845],[-7.245,38.848],[-7.226,38.829],[-7.214,38.831],[-7.211,38.808],[-7.232,38.785],[-7.228,38.767],[-7.204,38.751],[-7.197,38.765],[-7.162,38.781],[-7.148,38.8],[-7.125,38.815],[-7.096,38.816],[-7.068,38.854],[-7.039,38.865],[-7.033,38.879],[-7.051,38.906],[-7.026,38.925],[-7.013,38.949],[-6.987,38.976],[-6.964,39.011],[-6.951,39.024],[-6.968,39.039],[-6.959,39.054],[-6.981,39.088],[-7.028,39.116],[-7.054,39.118],[-7.101,39.104],[-7.105,39.099],[-7.144,39.109],[-7.14,39.15],[-7.132,39.165],[-7.167,39.181],[-7.222,39.193],[-7.241,39.208]]]},"properties":{"district":"portalegre"}},
{"type":"Feature","geometry":{"type":"Polygon","coordinates":[[[-8.119,41.344],[-8.146,41.364],[-8.14,41.373],[-8.159,41.381],[-8.166,41.4],[-8.186,41.41],[-8.223,41.409],[-8.22,41.398],[-8.247,41.392],[-8.274,41.365],[-8.278,41.346],[-8.304,41.343],[-8.316,41.351],[-8.326,41.377],[-8.357,41.365],[-8.394,41.362],[-8.387,41.381],[-8.399,41.384],[-8.423,41.366],[-8.441,41.363],[-8.455,41.376],[-8.501,41.368],[-8.516,41.346],[-8.55,41.348],[-8.602,41.346],[-8.611,41.341],[-8.623,41.383],[-8.592,41.395],[-8.605,41.413],[-8.623,41.415],[-8.65,41.42],[-8.657,41.436],[-8.683,41.449],[-8.701,41.442],[-8.712,41.455],[-8.73,41.454],[-8.746,41.469],[-8.776,41.472],[-8.78,41.442],[-8.789,41.417],[-8.781,41.396],[-8.763,41.372],[-8.755,41.343],[-8.741,41.337],[-8.741,41.311],[-8.729,41.27],[-8.727,41.245],[-8.716,41.221],[-8.716,41.203],[-8.69,41.173],[-8.671,41.143],[-8.669,41.122],[-8.658,41.091],[-8.656,41.052],[-8.645,41.016],[-8.606,41.026],[-8.594,41.014],[-8.557,41.016],[-8.546,41.034],[-8.528,41.036],[-8.514,41.015],[-8.489,41.013],[-8.476,41.034],[-8.493,41.04],[-8.486,41.053],[-8.46,41.045],[-8.449,41.053],[-8.433,41.029],[-8.389,41.001],[-8.384,41.004],[-8.386,41.02],[-8.401,41.033],[-8.399,41.049],[-8.375,41.05],[-8.352,41.04],[-8.326,41.058],[-8.315,41.058],[-8.293,41.08],[-8.28,41.067],[-8.264,41.066],[-8.219,41.082],[-8.209,41.093],[-8.161,41.089],[-8.147,41.084],[-8.118,41.089],[-8.097,41.101],[-8.083,41.092],[-8.049,41.091],[-8.027,41.097],[-7.951,41.123],[-7.912,41.12],[-7.914,41.135],[-7.89,41.163],[-7.899,41.173],[-7.888,41.189],[-7.89,41.202],[-7.894,41.209],[-7.876,41.242],[-7.896,41.249],[-7.895,41.25],[-7.896,41.268],[-7.915,41.274],[-7.921,41.29],[-7.908,41.303],[-7.929,41.318],[-7.958,41.324],[-7.965,41.332],[-7.948,41.353],[-7.973,41.36],[-7.974,41.375],[-7.99,41.347],[-8.036,41.319],[-8.065,41.343],[-8.087,41.329],[-8.119,41.344]]]},"properties":{"district":"porto"}},
{"type":"Feature","geometry":{"type":"Polygon","coordinates":[[[-8.735,37.814],[-8.707,37.779],[-8.695,37.776],[-8.683,37.753],[-8.661,37.768],[-8.633,37.753],[-8.608,37.759],[-8.588,37.757],[-8.59,37.778],[-8.584,37.799],[-8.569,37.817],[-8.548,37.818],[-8.551,37.847],[-8.533,37.855],[-8.479,37.855],[-8.462,37.866],[-8.44,37.86],[-8.435,37.871],[-8.401,37.863],[-8.368,37.861],[-8.331,37.847],[-8.336,37.865],[-8.311,37.882],[-8.299,37.899],[-8.309,37.912],[-8.307,37.93],[-8.296,37.951],[-8.294,37.993],[-8.314,38.016],[-8.353,38.027],[-8.395,38.053],[-8.408,38.066],[-8.387,38.116],[-8.364,38.104],[-8.354,38.119],[-8.356,38.137],[-8.338,38.141],[-8.334,38.155],[-8.308,38.137],[-8.291,38.139],[-8.29,38.17],[-8.284,38.187],[-8.266,38.18],[-8.238,38.182],[-8.23,38.197],[-8.203,38.201],[-8.165,38.218],[-8.13,38.224],[-8.13,38.266],[-8.143,38.298],[-8.164,38.32],[-8.198,38.343],[-8.237,38.346],[-8.269,38.354],[-8.277,38.372],[-8.301,38.376],[-8.323,38.372],[-8.301,38.4],[-8.284,38.412],[-8.301,38.423],[-8.289,38.438],[-8.325,38.443],[-8.31,38.459],[-8.336,38.507],[-8.358,38.524],[-8.369,38.546],[-8.4,38.538],[-8.423,38.521],[-8.446,38.526],[-8.476,38.517],[-8.491,38.529],[-8.498,38.549],[-8.52,38.543],[-8.507,38.519],[-8.529,38.511],[-8.532,38.528],[-8.573,38.532],[-8.575,38.548],[-8.59,38.542],[-8.616,38.553],[-8.639,38.549],[-8.657,38.608],[-8.637,38.62],[-8.612,38.645],[-8.601,38.646],[-8.566,38.678],[-8.531,38.692],[-8.52,38.709],[-8.501,38.715],[-8.511,38.733],[-8.492,38.755],[-8.515,38.765],[-8.547,38.763],[-8.607,38.777],[-8.607,38.808],[-8.598,38.84],[-8.629,38.831],[-8.648,38.809],[-8.669,38.822],[-8.686,38.827],[-8.697,38.84],[-8.744,38.777],[-8.754,38.743],[-8.767,38.738],[-8.792,38.734],[-8.81,38.74],[-8.834,38.761],[-8.868,38.748],[-8.908,38.742],[-8.924,38.751],[-8.942,38.8],[-8.967,38.826],[-8.988,38.785],[-9.003,38.777],[-9.031,38.741],[-9.024,38.726],[-9.046,38.713],[-9.045,38.684],[-9.089,38.662],[-9.095,38.655],[-9.1,38.648],[-9.129,38.656],[-9.151,38.672],[-9.148,38.688],[-9.18,38.679],[-9.241,38.675],[-9.259,38.663],[-9.247,38.653],[-9.211,38.603],[-9.188,38.55],[-9.183,38.527],[-9.184,38.492],[-9.194,38.462],[-9.218,38.428],[-9.22,38.413],[-9.2,38.409],[-9.169,38.43],[-9.114,38.435],[-9.107,38.443],[-9.064,38.435],[-9.018,38.454],[-8.991,38.465],[-8.982,38.479],[-8.943,38.484],[-8.928,38.504],[-8.913,38.502],[-8.911,38.487],[-8.835,38.429],[-8.805,38.383],[-8.784,38.322],[-8.776,38.262],[-8.776,38.221],[-8.781,38.182],[-8.797,38.121],[-8.826,38.049],[-8.856,37.992],[-8.884,37.95],[-8.864,37.95],[-8.854,37.936],[-8.815,37.931],[-8.8,37.908],[-8.793,37.868],[-8.796,37.85],[-8.793,37.82],[-8.783,37.807],[-8.735,37.814]]]},"properties":{"district":"setubal"}},
{"type":"Feature","geometry":{"type":"Polygon","coordinates":[[[-8.21,41.924],[-8.198,41.94],[-8.175,41.955],[-8.163,41.983],[-8.141,41.989],[-8.13,42.004],[-8.086,42.016],[-8.084,42.047],[-8.097,42.072],[-8.119,42.082],[-8.15,42.079],[-8.17,42.067],[-8.186,42.073],[-8.186,42.098],[-8.195,42.148],[-8.226,42.133],[-8.254,42.137],[-8.304,42.104],[-8.322,42.102],[-8.339,42.084],[-8.371,42.088],[-8.382,42.076],[-8.405,42.08],[-8.429,42.072],[-8.451,42.083],[-8.518,42.08],[-8.525,42.064],[-8.547,42.054],[-8.586,42.052],[-8.595,42.057],[-8.637,42.047],[-8.659,42.026],[-8.661,42.003],[-8.682,41.991],[-8.716,41.98],[-8.746,41.965],[-8.748,41.943],[-8.786,41.917],[-8.818,41.911],[-8.853,41.875],[-8.872,41.864],[-8.874,41.82],[-8.865,41.813],[-8.874,41.796],[-8.873,41.774],[-8.881,41.753],[-8.857,41.701],[-8.831,41.678],[-8.827,41.65],[-8.812,41.612],[-8.801,41.606],[-8.776,41.616],[-8.757,41.614],[-8.732,41.622],[-8.724,41.634],[-8.696,41.641],[-8.664,41.642],[-8.643,41.654],[-8.604,41.634],[-8.577,41.643],[-8.565,41.625],[-8.541,41.631],[-8.537,41.654],[-8.547,41.663],[-8.522,41.68],[-8.514,41.721],[-8.493,41.742],[-8.486,41.727],[-8.461,41.732],[-8.454,41.741],[-8.414,41.759],[-8.383,41.761],[-8.375,41.77],[-8.35,41.76],[-8.337,41.765],[-8.308,41.761],[-8.292,41.782],[-8.271,41.771],[-8.232,41.787],[-8.197,41.812],[-8.169,41.807],[-8.165,41.818],[-8.162,41.861],[-8.169,41.877],[-8.2,41.874],[-8.201,41.888],[-8.215,41.899],[-8.21,41.924]]]},"properties":{"district":"viana-do-castelo"}},
{"type":"Feature","geometry":{"type":"Polygon","coordinates":[[[-8.237,39.642],[-8.236,39.644],[-8.229,39.665],[-8.23,39.697],[-8.238,39.71],[-8.232,39.727],[-8.232,39.763],[-8.244,39.779],[-8.264,39.769],[-8.284,39.782],[-8.285,39.796],[-8.305,39.794],[-8.336,39.803],[-8.326,39.788],[-8.33,39.775],[-8.36,39.769],[-8.38,39.752],[-8.396,39.761],[-8.423,39.754],[-8.431,39.741],[-8.451,39.755],[-8.463,39.773],[-8.463,39.804],[-8.478,39.839],[-8.501,39.824],[-8.517,39.828],[-8.545,39.798],[-8.593,39.777],[-8.624,39.79],[-8.676,39.774],[-8.682,39.749],[-8.673,39.731],[-8.674,39.71],[-8.64,39.701],[-8.647,39.664],[-8.702,39.637],[-8.687,39.61],[-8.685,39.574],[-8.671,39.562],[-8.687,39.551],[-8.695,39.532],[-8.714,39.521],[-8.737,39.537],[-8.746,39.529],[-8.743,39.509],[-8.73,39.482],[-8.759,39.476],[-8.802,39.483],[-8.846,39.473],[-8.881,39.474],[-8.893,39.465],[-8.903,39.466],[-8.932,39.423],[-8.946,39.391],[-8.971,39.393],[-8.984,39.385],[-9.002,39.355],[-8.999,39.333],[-8.987,39.318],[-8.995,39.297],[-8.975,39.287],[-8.981,39.249],[-8.963,39.255],[-8.937,39.24],[-8.912,39.235],[-8.894,39.249],[-8.876,39.251],[-8.861,39.23],[-8.835,39.225],[-8.82,39.198],[-8.822,39.19],[-8.855,39.179],[-8.872,39.188],[-8.891,39.184],[-8.904,39.162],[-8.882,39.149],[-8.873,39.132],[-8.845,39.116],[-8.826,39.116],[-8.798,39.096],[-8.782,39.058],[-8.801,39.054],[-8.815,39.032],[-8.861,39.029],[-8.847,39.011],[-8.859,39],[-8.864,38.98],[-8.856,38.965],[-8.87,38.951],[-8.887,38.947],[-8.891,38.928],[-8.912,38.902],[-8.912,38.888],[-8.947,38.847],[-8.968,38.828],[-8.967,38.826],[-8.942,38.8],[-8.924,38.751],[-8.908,38.742],[-8.868,38.748],[-8.834,38.761],[-8.81,38.74],[-8.792,38.734],[-8.767,38.738],[-8.754,38.743],[-8.744,38.777],[-8.697,38.84],[-8.686,38.827],[-8.669,38.822],[-8.648,38.809],[-8.629,38.831],[-8.598,38.84],[-8.607,38.808],[-8.607,38.777],[-8.547,38.763],[-8.5,38.807],[-8.471,38.794],[-8.444,38.813],[-8.439,38.828],[-8.419,38.838],[-8.409,38.823],[-8.382,38.841],[-8.38,38.853],[-8.342,38.839],[-8.321,38.859],[-8.301,38.86],[-8.27,38.842],[-8.269,38.832],[-8.249,38.818],[-8.222,38.829],[-8.197,38.808],[-8.182,38.803],[-8.176,38.783],[-8.153,38.773],[-8.124,38.805],[-8.141,38.818],[-8.155,38.809],[-8.168,38.83],[-8.188,38.838],[-8.186,38.851],[-8.159,38.866],[-8.182,38.879],[-8.201,38.879],[-8.272,38.907],[-8.243,38.938],[-8.228,38.987],[-8.26,39.012],[-8.268,39.053],[-8.291,39.059],[-8.291,39.079],[-8.343,39.1],[-8.299,39.163],[-8.262,39.177],[-8.233,39.183],[-8.221,39.196],[-8.185,39.219],[-8.173,39.233],[-8.151,39.25],[-8.153,39.273],[-8.134,39.287],[-8.089,39.275],[-8.076,39.292],[-8.05,39.312],[-8.041,39.331],[-8.026,39.342],[-8.028,39.363],[-8.001,39.368],[-7.991,39.383],[-7.969,39.382],[-7.959,39.398],[-7.939,39.41],[-7.943,39.42],[-7.995,39.448],[-8.009,39.473],[-8,39.505],[-7.986,39.513],[-7.97,39.537],[-7.96,39.561],[-7.91,39.548],[-7.851,39.51],[-7.839,39.515],[-7.825,39.537],[-7.822,39.559],[-7.809,39.566],[-7.817,39.585],[-7.841,39.6],[-7.862,39.626],[-7.864,39.637],[-7.914,39.667],[-7.95,39.661],[-7.959,39.664],[-7.951,39.686],[-7.96,39.743],[-7.991,39.729],[-8.005,39.743],[-8.036,39.747],[-8.055,39.736],[-8.05,39.718],[-8.062,39.693],[-8.061,39.668],[-8.077,39.659],[-8.054,39.617],[-8.108,39.614],[-8.134,39.611],[-8.164,39.627],[-8.237,39.642]]]},"properties":{"district":"santarem"}},
{"type":"Feature","geometry":{"type":"Polygon","coordinates":[[[-8.132,40.335],[-8.113,40.341],[-8.066,40.374],[-8.046,40.381],[-8.04,40.387],[-8.004,40.392],[-7.948,40.423],[-7.931,40.429],[-7.904,40.456],[-7.884,40.473],[-7.847,40.496],[-7.828,40.499],[-7.823,40.508],[-7.784,40.507],[-7.753,40.527],[-7.721,40.536],[-7.713,40.544],[-7.667,40.554],[-7.635,40.568],[-7.606,40.565],[-7.58,40.575],[-7.589,40.586],[-7.562,40.636],[-7.566,40.645],[-7.542,40.659],[-7.551,40.677],[-7.535,40.69],[-7.563,40.694],[-7.586,40.709],[-7.598,40.726],[-7.571,40.748],[-7.584,40.766],[-7.625,40.784],[-7.591,40.83],[-7.588,40.85],[-7.558,40.873],[-7.514,40.869],[-7.479,40.832],[-7.454,40.813],[-7.436,40.824],[-7.401,40.879],[-7.376,40.887],[-7.375,40.905],[-7.357,40.929],[-7.336,40.934],[-7.325,40.972],[-7.371,40.992],[-7.379,41.013],[-7.348,41.011],[-7.334,41.023],[-7.341,41.029],[-7.343,41.058],[-7.323,41.119],[-7.305,41.14],[-7.311,41.147],[-7.341,41.144],[-7.358,41.148],[-7.382,41.178],[-7.389,41.193],[-7.432,41.211],[-7.451,41.214],[-7.464,41.202],[-7.508,41.197],[-7.522,41.18],[-7.549,41.188],[-7.556,41.174],[-7.59,41.156],[-7.64,41.159],[-7.658,41.163],[-7.696,41.142],[-7.73,41.145],[-7.777,41.152],[-7.793,41.161],[-7.814,41.146],[-7.835,41.153],[-7.86,41.158],[-7.88,41.151],[-7.897,41.124],[-7.912,41.12],[-7.951,41.123],[-8.027,41.097],[-8.049,41.091],[-8.083,41.092],[-8.097,41.101],[-8.118,41.089],[-8.147,41.084],[-8.161,41.089],[-8.209,41.093],[-8.219,41.082],[-8.264,41.066],[-8.237,41.058],[-8.23,41.036],[-8.235,41.012],[-8.206,41.009],[-8.178,40.988],[-8.161,40.99],[-8.143,40.979],[-8.124,40.985],[-8.118,40.997],[-8.091,41.009],[-8.089,40.988],[-8.115,40.966],[-8.132,40.942],[-8.121,40.921],[-8.128,40.898],[-8.116,40.89],[-8.103,40.867],[-8.106,40.855],[-8.125,40.849],[-8.149,40.855],[-8.166,40.866],[-8.191,40.846],[-8.205,40.848],[-8.232,40.865],[-8.255,40.856],[-8.237,40.827],[-8.249,40.804],[-8.273,40.763],[-8.288,40.752],[-8.334,40.737],[-8.326,40.711],[-8.298,40.694],[-8.294,40.653],[-8.296,40.638],[-8.274,40.631],[-8.249,40.618],[-8.247,40.614],[-8.308,40.596],[-8.289,40.569],[-8.285,40.54],[-8.273,40.537],[-8.251,40.515],[-8.264,40.503],[-8.283,40.509],[-8.311,40.496],[-8.33,40.493],[-8.335,40.475],[-8.319,40.457],[-8.326,40.44],[-8.355,40.409],[-8.354,40.396],[-8.356,40.367],[-8.334,40.359],[-8.31,40.361],[-8.293,40.354],[-8.276,40.336],[-8.252,40.324],[-8.209,40.341],[-8.187,40.338],[-8.172,40.344],[-8.132,40.335]],[[-7.418,40.922],[-7.381,40.907],[-7.388,40.885],[-7.405,40.88],[-7.425,40.887],[-7.43,40.903],[-7.418,40.922]]]},"properties":{"district":"viseu"}},
{"type":"Feature","geometry":{"type":"Polygon","coordinates":[[[-7.363,41.324],[-7.357,41.331],[-7.315,41.338],[-7.348,41.352],[-7.362,41.367],[-7.354,41.376],[-7.366,41.397],[-7.36,41.424],[-7.365,41.44],[-7.33,41.459],[-7.308,41.461],[-7.297,41.499],[-7.284,41.516],[-7.229,41.523],[-7.258,41.563],[-7.258,41.59],[-7.243,41.642],[-7.214,41.681],[-7.209,41.712],[-7.189,41.735],[-7.176,41.737],[-7.171,41.77],[-7.194,41.782],[-7.198,41.802],[-7.209,41.809],[-7.207,41.846],[-7.195,41.866],[-7.2,41.88],[-7.233,41.867],[-7.258,41.866],[-7.284,41.852],[-7.315,41.843],[-7.356,41.841],[-7.364,41.853],[-7.39,41.842],[-7.409,41.817],[-7.431,41.821],[-7.444,41.839],[-7.452,41.865],[-7.485,41.861],[-7.521,41.842],[-7.574,41.83],[-7.611,41.829],[-7.612,41.847],[-7.583,41.879],[-7.654,41.881],[-7.704,41.907],[-7.733,41.892],[-7.764,41.899],[-7.778,41.887],[-7.802,41.882],[-7.845,41.881],[-7.842,41.866],[-7.866,41.859],[-7.888,41.866],[-7.884,41.889],[-7.888,41.927],[-7.906,41.927],[-7.921,41.882],[-7.949,41.871],[-7.975,41.875],[-7.989,41.868],[-8.013,41.834],[-8.051,41.819],[-8.061,41.763],[-8.076,41.75],[-8.082,41.725],[-8.094,41.707],[-8.119,41.689],[-8.074,41.695],[-8.048,41.693],[-8.039,41.701],[-8.018,41.689],[-7.994,41.687],[-7.982,41.678],[-7.999,41.653],[-8.001,41.616],[-7.997,41.603],[-7.966,41.604],[-7.953,41.593],[-7.932,41.595],[-7.906,41.587],[-7.879,41.588],[-7.857,41.601],[-7.851,41.615],[-7.83,41.602],[-7.812,41.578],[-7.814,41.565],[-7.833,41.557],[-7.838,41.539],[-7.864,41.524],[-7.861,41.512],[-7.889,41.509],[-7.904,41.489],[-7.926,41.489],[-7.938,41.477],[-7.939,41.447],[-7.942,41.43],[-7.967,41.412],[-7.963,41.404],[-7.974,41.375],[-7.973,41.36],[-7.948,41.353],[-7.965,41.332],[-7.958,41.324],[-7.929,41.318],[-7.908,41.303],[-7.921,41.29],[-7.915,41.274],[-7.896,41.268],[-7.895,41.25],[-7.896,41.249],[-7.876,41.242],[-7.894,41.209],[-7.89,41.202],[-7.888,41.189],[-7.899,41.173],[-7.89,41.163],[-7.914,41.135],[-7.912,41.12],[-7.897,41.124],[-7.88,41.151],[-7.86,41.158],[-7.835,41.153],[-7.814,41.146],[-7.793,41.161],[-7.777,41.152],[-7.73,41.145],[-7.696,41.142],[-7.658,41.163],[-7.64,41.159],[-7.59,41.156],[-7.556,41.174],[-7.549,41.188],[-7.522,41.18],[-7.508,41.197],[-7.464,41.202],[-7.451,41.214],[-7.432,41.211],[-7.421,41.22],[-7.415,41.248],[-7.39,41.243],[-7.395,41.263],[-7.391,41.286],[-7.362,41.304],[-7.363,41.324]]]},"properties":{"district":"vila-real"}},
{"type":"Feature","geometry":{"type":"MultiPolygon","coordinates":[[[[-16.38,33.024],[-16.344,33.051],[-16.321,33.063],[-16.302,33.062],[-16.292,33.079],[-16.294,33.094],[-16.325,33.104],[-16.372,33.081],[-16.38,33.053],[-16.396,33.041],[-16.38,33.024]]],[[[-17.231,32.84],[-17.266,32.815],[-17.251,32.802],[-17.245,32.773],[-17.213,32.737],[-17.191,32.725],[-17.141,32.703],[-17.106,32.679],[-17.087,32.68],[-17.064,32.668],[-17.02,32.654],[-16.998,32.653],[-16.969,32.645],[-16.944,32.633],[-16.911,32.646],[-16.896,32.647],[-16.858,32.64],[-16.83,32.642],[-16.804,32.663],[-16.793,32.685],[-16.774,32.691],[-16.769,32.701],[-16.745,32.735],[-16.726,32.742],[-16.745,32.756],[-16.778,32.758],[-16.822,32.768],[-16.84,32.787],[-16.856,32.795],[-16.865,32.81],[-16.904,32.836],[-16.971,32.827],[-16.989,32.83],[-17.017,32.815],[-17.051,32.808],[-17.065,32.812],[-17.092,32.815],[-17.123,32.827],[-17.15,32.847],[-17.167,32.868],[-17.197,32.87],[-17.231,32.84]]],[[[-16.492,32.476],[-16.49,32.488],[-16.5,32.52],[-16.522,32.551],[-16.534,32.538],[-16.518,32.529],[-16.505,32.507],[-16.492,32.476]]]]},"properties":{"district":"madeira"}},
{"type":"Feature","geometry":{"type":"MultiPolygon","coordinates":[[[[-27.067,38.676],[-27.047,38.69],[-27.043,38.703],[-27.061,38.715],[-27.05,38.738],[-27.061,38.759],[-27.103,38.786],[-27.13,38.781],[-27.182,38.796],[-27.229,38.791],[-27.233,38.798],[-27.271,38.802],[-27.332,38.794],[-27.366,38.775],[-27.379,38.747],[-27.369,38.707],[-27.352,38.687],[-27.286,38.655],[-27.267,38.657],[-27.165,38.654],[-27.132,38.644],[-27.117,38.647],[-27.077,38.644],[-27.076,38.671],[-27.067,38.676]]],[[[-28.016,38.666],[-28.078,38.681],[-28.117,38.693],[-28.144,38.706],[-28.233,38.731],[-28.262,38.745],[-28.312,38.756],[-28.298,38.738],[-28.269,38.716],[-28.231,38.701],[-28.221,38.685],[-28.195,38.67],[-28.105,38.632],[-28.064,38.626],[-28.024,38.601],[-27.942,38.589],[-27.902,38.565],[-27.867,38.553],[-27.829,38.534],[-27.774,38.536],[-27.753,38.548],[-27.776,38.564],[-27.823,38.579],[-27.834,38.586],[-27.903,38.615],[-27.927,38.627],[-27.977,38.644],[-27.993,38.658],[-28.016,38.666]]],[[[-28.714,38.644],[-28.757,38.61],[-28.791,38.612],[-28.833,38.604],[-28.822,38.587],[-28.781,38.565],[-28.758,38.559],[-28.746,38.524],[-28.72,38.517],[-28.673,38.523],[-28.632,38.524],[-28.612,38.561],[-28.604,38.6],[-28.622,38.611],[-28.648,38.617],[-28.662,38.63],[-28.714,38.644]]],[[[-28.122,38.45],[-28.171,38.456],[-28.192,38.463],[-28.201,38.476],[-28.232,38.487],[-28.241,38.498],[-28.269,38.499],[-28.297,38.507],[-28.33,38.536],[-28.388,38.558],[-28.414,38.561],[-28.444,38.558],[-28.477,38.56],[-28.519,38.546],[-28.537,38.53],[-28.542,38.509],[-28.54,38.485],[-28.515,38.451],[-28.446,38.421],[-28.411,38.428],[-28.364,38.412],[-28.352,38.416],[-28.299,38.411],[-28.273,38.412],[-28.256,38.404],[-28.256,38.391],[-28.229,38.385],[-28.197,38.395],[-28.172,38.41],[-28.118,38.406],[-28.081,38.4],[-28.029,38.411],[-28.035,38.429],[-28.056,38.442],[-28.122,38.45]]],[[[-28.029,39.096],[-28.044,39.096],[-28.071,39.07],[-28.051,39.04],[-28.032,39.022],[-28.018,39.025],[-27.999,39.014],[-27.97,39.009],[-27.949,39.018],[-27.956,39.04],[-27.99,39.082],[-28.029,39.096]]],[[[-31.114,39.669],[-31.087,39.686],[-31.082,39.707],[-31.088,39.719],[-31.115,39.724],[-31.129,39.702],[-31.114,39.669]]],[[[-31.147,39.425],[-31.143,39.437],[-31.127,39.45],[-31.159,39.502],[-31.173,39.498],[-31.202,39.508],[-31.214,39.52],[-31.233,39.514],[-31.257,39.489],[-31.259,39.46],[-31.269,39.451],[-31.26,39.436],[-31.259,39.398],[-31.248,39.376],[-31.193,39.373],[-31.16,39.386],[-31.148,39.408],[-31.147,39.425]]],[[[-25.484,37.718],[-25.443,37.712],[-25.388,37.717],[-25.368,37.714],[-25.335,37.726],[-25.319,37.725],[-25.276,37.744],[-25.252,37.747],[-25.217,37.737],[-25.173,37.742],[-25.15,37.758],[-25.141,37.774],[-25.144,37.793],[-25.134,37.807],[-25.147,37.848],[-25.165,37.856],[-25.194,37.86],[-25.243,37.854],[-25.278,37.86],[-25.308,37.857],[-25.329,37.853],[-25.403,37.827],[-25.44,37.823],[-25.47,37.825],[-25.491,37.844],[-25.526,37.824],[-25.554,37.815],[-25.586,37.814],[-25.617,37.827],[-25.676,37.835],[-25.693,37.845],[-25.699,37.864],[-25.718,37.887],[-25.781,37.911],[-25.803,37.897],[-25.821,37.9],[-25.824,37.886],[-25.855,37.861],[-25.841,37.828],[-25.816,37.81],[-25.788,37.798],[-25.776,37.783],[-25.74,37.765],[-25.704,37.739],[-25.688,37.733],[-25.623,37.75],[-25.606,37.744],[-25.567,37.744],[-25.509,37.707],[-25.484,37.718]]],[[[-25.089,37.017],[-25.119,37.004],[-25.146,37.007],[-25.181,36.997],[-25.185,36.984],[-25.171,36.951],[-25.157,36.94],[-25.103,36.952],[-25.083,36.945],[-25.067,36.929],[-25.045,36.929],[-25.013,36.94],[-25.016,36.959],[-25.042,36.983],[-25.059,37.015],[-25.074,37.01],[-25.089,37.017]]]]},"properties":{"district":"acores"}}
]}